      2.10          N: GNSS NAV DATA                        RINEX VERSION / TYPE
fic2rin                                 04/17/2019 00:19:58 PGM / RUN BY / DATE
                                                            END OF HEADER
 1 19  4 16 22  0  0.0-2.033188939095e-04-8.185452315956e-12 0.000000000000e+00
    6.100000000000e+01 4.950000000000e+01 4.770198697923e-09 7.921471677206e-01
    2.797693014145e-06 8.658223086968e-03 3.611668944359e-06 5.153650054932e+03
    2.520000000000e+05-4.842877388000e-08-2.228135186820e+00 8.195638656616e-08
    9.749604841147e-01 3.150937500000e+02 6.887002511984e-01-8.562142361883e-09
    1.557207721095e-10 1.000000000000e+00 2.049000000000e+03 0.000000000000e+00
    2.400000000000e+00 0.000000000000e+00 5.587935447693e-09 6.100000000000e+01
    2.448000000000e+05 4.000000000000e+00
 3 19  4 16 22  0  0.0 1.882496289909e-04 2.273736754432e-13 0.000000000000e+00
    4.300000000000e+01-1.122500000000e+02 4.676623371564e-09-1.045050656497e-01
   -5.882233381271e-06 1.990600372665e-03 7.553026080132e-06 5.153540796280e+03
    2.520000000000e+05 6.891787052155e-08-1.185304198369e+00 3.911554813385e-08
    9.624195764556e-01 2.322187500000e+02 5.631314254157e-01-8.327846888250e-09
   -6.057395171966e-10 1.000000000000e+00 2.049000000000e+03 0.000000000000e+00
    2.400000000000e+00 0.000000000000e+00 1.862645149231e-09 4.300000000000e+01
    2.448000000000e+05 4.000000000000e+00
22 19  4 16 22  0  0.0-6.849034689367e-04-6.934897101019e-12 0.000000000000e+00
    2.700000000000e+01-1.160937500000e+02 5.487728585923e-09 2.192757332116e+00
   -6.034970283508e-06 7.253798772581e-03 6.051734089851e-06 5.153828491211e+03
    2.520000000000e+05 1.527369022369e-07-1.256884000252e+00 2.980232238770e-08
    9.268285102191e-01 2.404062500000e+02-1.367431783617e+00-8.611787286936e-09
   -6.118111986779e-10 1.000000000000e+00 2.049000000000e+03 0.000000000000e+00
    2.400000000000e+00 0.000000000000e+00-1.816079020500e-08 2.700000000000e+01
    2.448000000000e+05 4.000000000000e+00
15 19  4 16 22  0  0.0-3.180177882314e-04 2.046363078989e-12 0.000000000000e+00
    1.600000000000e+01 4.718750000000e+00 4.869131390295e-09 2.082717757714e+00
    2.030283212662e-07 1.127542182803e-02 1.287460327148e-05 5.153679328918e+03
    2.520000000000e+05-1.955777406693e-07-2.319863876442e-01-1.881271600723e-07
    9.284720255352e-01 1.161250000000e+02 7.701137152645e-01-8.177483482154e-09
    1.428630936784e-10 1.000000000000e+00 2.049000000000e+03 0.000000000000e+00
    2.400000000000e+00 0.000000000000e+00-1.117587089539e-08 1.600000000000e+01
    2.448000000000e+05 4.000000000000e+00
23 19  4 16 22  0  0.0-1.899348571897e-04 1.477928890381e-12 0.000000000000e+00
    1.800000000000e+01 8.125000000000e+00 4.524474176796e-09 1.552608714808e+00
    5.234032869339e-07 1.308197167236e-02 1.420453190804e-05 5.153616201401e+03
    2.520000000000e+05-2.384185791016e-07-1.577642075354e-01 2.980232238770e-08
    9.438050849730e-01 1.003125000000e+02-2.273627188990e+00-8.137838973658e-09
    1.714357124141e-10 1.000000000000e+00 2.049000000000e+03 0.000000000000e+00
    2.400000000000e+00 0.000000000000e+00-2.048909664154e-08 1.800000000000e+01
    2.448000000000e+05 4.000000000000e+00
24 19  4 16 22  0  0.0-6.487779319286e-05-5.684341886081e-13 0.000000000000e+00
    3.800000000000e+01 6.468750000000e+01 5.421654405097e-09 1.059572489824e+00
    3.242865204811e-06 8.265157812275e-03 4.472211003304e-06 5.153718564987e+03
    2.520000000000e+05-1.303851604462e-08 8.575675680800e-01 1.043081283569e-07
    9.390008737040e-01 2.808750000000e+02 6.056849635185e-01-8.813938564491e-09
    2.925121843066e-10 1.000000000000e+00 2.049000000000e+03 0.000000000000e+00
    2.400000000000e+00 0.000000000000e+00 2.793967723846e-09 3.800000000000e+01
    2.448000000000e+05 4.000000000000e+00
12 19  4 16 22  0  0.0 2.506640739739e-04-3.410605131648e-12 0.000000000000e+00
    2.400000000000e+01-5.946875000000e+01 4.276606709264e-09-5.792619507568e-01
   -2.991408109665e-06 7.655093912035e-03 8.413568139076e-06 5.153663137436e+03
    2.520000000000e+05-6.332993507385e-08 2.022677551656e+00 1.266598701477e-07
    9.830169773228e-01 2.353125000000e+02 1.065490961907e+00-8.075693527908e-09
   -4.471614832135e-10 1.000000000000e+00 2.049000000000e+03 0.000000000000e+00
    2.400000000000e+00 0.000000000000e+00-1.210719347000e-08 2.400000000000e+01
    2.448000000000e+05 4.000000000000e+00
16 19  4 16 22  0  0.0-3.317417576909e-05-2.842170943040e-12 0.000000000000e+00
    8.800000000000e+01-6.653125000000e+01 4.156958868308e-09-2.467765138563e+00
   -3.755092620850e-06 1.083210401703e-02 9.384006261826e-06 5.153560037613e+03
    2.520000000000e+05 1.285225152969e-07 2.041594647743e+00-2.551823854446e-07
    9.833840117656e-01 2.099062500000e+02 5.678309751365e-01-7.869613515277e-09
   -4.839487298357e-10 1.000000000000e+00 2.049000000000e+03 0.000000000000e+00
    2.400000000000e+00 0.000000000000e+00-1.071020960808e-08 8.800000000000e+01
    2.448000000000e+05 4.000000000000e+00
 9 19  4 16 22  0  0.0 4.276297986507e-04-6.480149750132e-12 0.000000000000e+00
    5.600000000000e+01 1.646875000000e+01 4.247319775060e-09-3.007523728098e+00
    9.667128324509e-07 1.308024977334e-03 1.389905810356e-05 5.153707597733e+03
    2.520000000000e+05-3.725290298462e-09-1.530444593046e-01-2.421438694000e-08
    9.529968640532e-01 1.074687500000e+02 1.748055952656e+00-7.837826476933e-09
    2.400099973798e-10 1.000000000000e+00 2.049000000000e+03 0.000000000000e+00
    2.400000000000e+00 0.000000000000e+00 1.396983861923e-09 5.600000000000e+01
    2.448000000000e+05 4.000000000000e+00
 6 19  4 16 22  0  0.0 2.290452830493e-04-9.436007530894e-12 0.000000000000e+00
    3.100000000000e+01 5.087500000000e+01 4.624478342371e-09 9.759030115119e-01
    2.494081854820e-06 1.613942557015e-03 3.866851329803e-06 5.153557422638e+03
    2.520000000000e+05-2.421438694000e-08-2.236418256780e+00 7.450580596924e-09
    9.746240144194e-01 3.120000000000e+02-1.113466773686e+00-8.331418465592e-09
    2.082229590363e-10 1.000000000000e+00 2.049000000000e+03 0.000000000000e+00
    2.400000000000e+00 0.000000000000e+00 4.190951585770e-09 3.100000000000e+01
    2.448000000000e+05 4.000000000000e+00
 7 19  4 16 22  0  0.0-6.185844540596e-06-7.503331289627e-12 0.000000000000e+00
    6.800000000000e+01 5.609375000000e+01 5.150571684842e-09 1.942086582559e-01
    3.026798367500e-06 1.247712678742e-02 4.289671778679e-06 5.153587490082e+03
    2.520000000000e+05 1.862645149231e-09 9.228489839073e-01 2.142041921616e-07
    9.557976207160e-01 2.953750000000e+02-2.469058953553e+00-8.711791452511e-09
    3.696582548929e-10 1.000000000000e+00 2.049000000000e+03 0.000000000000e+00
    2.400000000000e+00 0.000000000000e+00-1.117587089539e-08 6.800000000000e+01
    2.448000000000e+05 4.000000000000e+00
 8 19  4 16 22  0  0.0-1.401701010764e-04-1.364242052659e-12 0.000000000000e+00
    7.600000000000e+01 5.593750000000e+01 4.151244344561e-09-3.096030124139e+00
    2.898275852203e-06 4.408245673403e-03 1.369230449200e-05 5.153731521606e+03
    2.520000000000e+05-4.097819328308e-08 2.988946720965e+00 3.539025783539e-08
    9.705679306787e-01 1.197187500000e+02-2.664934710828e-01-7.736036522687e-09
    2.064371703653e-10 1.000000000000e+00 2.049000000000e+03 0.000000000000e+00
    2.400000000000e+00 0.000000000000e+00 5.122274160385e-09 7.600000000000e+01
    2.448000000000e+05 4.000000000000e+00
 5 19  4 16 22  0  0.0 1.118984073400e-06-1.136868377216e-13 0.000000000000e+00
    6.700000000000e+01-1.031562500000e+02 4.860202446940e-09-2.531400474579e+00
   -5.340203642845e-06 5.589945940301e-03 6.755813956261e-06 5.153667781830e+03
    2.520000000000e+05-1.303851604462e-08-1.211589494949e+00-4.842877388000e-08
    9.492836034610e-01 2.442187500000e+02 7.026641231812e-01-8.284273644678e-09
   -4.368039089218e-10 1.000000000000e+00 2.049000000000e+03 0.000000000000e+00
    2.400000000000e+00 0.000000000000e+00-1.117587089539e-08 6.700000000000e+01
    2.448000000000e+05 4.000000000000e+00
27 19  4 16 22  0  0.0-1.100432127714e-04-8.753886504564e-12 0.000000000000e+00
    1.170000000000e+02 5.918750000000e+01 3.876590046964e-09 2.951432967830e+00
    2.969056367874e-06 7.009471184574e-03 1.334957778454e-05 5.153648492813e+03
    2.520000000000e+05-5.401670932770e-08 2.999976475210e+00-6.891787052155e-08
    9.788526230151e-01 1.318125000000e+02 4.638939693544e-01-7.606031107440e-09
    2.107230631757e-10 1.000000000000e+00 2.049000000000e+03 0.000000000000e+00
    2.400000000000e+00 0.000000000000e+00 1.396983861923e-09 1.170000000000e+02
    2.448000000000e+05 4.000000000000e+00
25 19  4 16 22  0  0.0-7.463693618774e-04-4.320099833421e-12 0.000000000000e+00
    9.000000000000e+01-6.353125000000e+01 4.577690679191e-09-9.123121745383e-01
   -3.142282366753e-06 8.439085213467e-03 7.499009370804e-06 5.153725162506e+03
    2.520000000000e+05 7.264316082001e-08 1.958838296563e+00 1.955777406693e-07
    9.704367142415e-01 2.418750000000e+02 8.858403866249e-01-8.196055684332e-09
   -4.557332688342e-10 1.000000000000e+00 2.049000000000e+03 0.000000000000e+00
    2.400000000000e+00 0.000000000000e+00 6.053596735001e-09 9.000000000000e+01
    2.448000000000e+05 4.000000000000e+00
14 19  4 16 22  0  0.0-8.421856909990e-05 1.477928890381e-12 0.000000000000e+00
    6.600000000000e+01 4.684375000000e+01 4.015524405567e-09 2.717129671974e+00
    2.400949597359e-06 1.044462865684e-02 1.341104507446e-05 5.153698762894e+03
    2.520000000000e+05 1.005828380585e-07-6.061466034105e-02-3.725290298462e-09
    9.610658447301e-01 1.185312500000e+02-1.944202785724e+00-7.618531628137e-09
    4.189460222120e-10 1.000000000000e+00 2.049000000000e+03 0.000000000000e+00
    2.400000000000e+00 0.000000000000e+00-9.778887033463e-09 6.600000000000e+01
    2.448000000000e+05 4.000000000000e+00
